[{"OBJECT_NAME":"ONEWEB-0142","OBJECT_ID":"2020-100AG","EPOCH":"2025-10-06T01:22:51.462048","MEAN_MOTION":13.12443143,"ECCENTRICITY":0.0002074,"INCLINATION":87.8951,"RA_OF_ASC_NODE":41.1506,"ARG_OF_PERICENTER":97.1583,"MEAN_ANOMALY":262.9781,"EPHEMERIS_TYPE":0,"CLASSIFICATION_TYPE":"U","NORAD_CAT_ID":47288,"ELEMENT_SET_NO":999,"REV_AT_EPOCH":23133,"BSTAR":-0.001041,"MEAN_MOTION_DOT":-3.62e-6,"MEAN_MOTION_DDOT":0},{"OBJECT_NAME":"ONEWEB-0143","OBJECT_ID":"2020-100AH","EPOCH":"2025-10-06T01:36:39.259584","MEAN_MOTION":13.12442264,"ECCENTRICITY":0.0001662,"INCLINATION":87.8949,"RA_OF_ASC_NODE":41.1451,"ARG_OF_PERICENTER":99.3648,"MEAN_ANOMALY":260.7668,"EPHEMERIS_TYPE":0,"CLASSIFICATION_TYPE":"U","NORAD_CAT_ID":47289,"ELEMENT_SET_NO":999,"REV_AT_EPOCH":23131,"BSTAR":-0.001065,"MEAN_MOTION_DOT":-3.7e-6,"MEAN_MOTION_DDOT":0},{"OBJECT_NAME":"ONEWEB-0144","OBJECT_ID":"2020-100AJ","EPOCH":"2025-10-06T00:56:57.880320","MEAN_MOTION":13.12440961,"ECCENTRICITY":0.0002007,"INCLINATION":87.894,"RA_OF_ASC_NODE":41.1238,"ARG_OF_PERICENTER":103.3929,"MEAN_ANOMALY":256.7424,"EPHEMERIS_TYPE":0,"CLASSIFICATION_TYPE":"U","NORAD_CAT_ID":47290,"ELEMENT_SET_NO":999,"REV_AT_EPOCH":23123,"BSTAR":0.00041215,"MEAN_MOTION_DOT":1.61e-6,"MEAN_MOTION_DDOT":0},{"OBJECT_NAME":"ONEWEB-0145","OBJECT_ID":"2020-100AK","EPOCH":"2025-10-06T02:04:41.744064","MEAN_MOTION":13.12442378,"ECCENTRICITY":0.0001774,"INCLINATION":87.895,"RA_OF_ASC_NODE":41.1477,"ARG_OF_PERICENTER":100.9215,"MEAN_ANOMALY":259.2114,"EPHEMERIS_TYPE":0,"CLASSIFICATION_TYPE":"U","NORAD_CAT_ID":47291,"ELEMENT_SET_NO":999,"REV_AT_EPOCH":23143,"BSTAR":0.00049611,"MEAN_MOTION_DOT":1.91e-6,"MEAN_MOTION_DDOT":0},{"OBJECT_NAME":"ONEWEB-0146","OBJECT_ID":"2020-100AL","EPOCH":"2025-10-06T02:00:01.827936","MEAN_MOTION":13.12442437,"ECCENTRICITY":0.0001409,"INCLINATION":87.8947,"RA_OF_ASC_NODE":41.1348,"ARG_OF_PERICENTER":94.9138,"MEAN_ANOMALY":265.2151,"EPHEMERIS_TYPE":0,"CLASSIFICATION_TYPE":"U","NORAD_CAT_ID":47292,"ELEMENT_SET_NO":999,"REV_AT_EPOCH":23134,"BSTAR":-0.00016428,"MEAN_MOTION_DOT":-4.6e-7,"MEAN_MOTION_DDOT":0},{"OBJECT_NAME":"ONEWEB-0147","OBJECT_ID":"2020-100AM","EPOCH":"2025-10-06T01:10:58.084032","MEAN_MOTION":13.12441315,"ECCENTRICITY":0.00017,"INCLINATION":87.8949,"RA_OF_ASC_NODE":41.1199,"ARG_OF_PERICENTER":109.7197,"MEAN_ANOMALY":250.4114,"EPHEMERIS_TYPE":0,"CLASSIFICATION_TYPE":"U","NORAD_CAT_ID":47293,"ELEMENT_SET_NO":999,"REV_AT_EPOCH":23123,"BSTAR":-0.00059139,"MEAN_MOTION_DOT":-2.0e-6,"MEAN_MOTION_DDOT":0},{"OBJECT_NAME":"ONEWEB-0115","OBJECT_ID":"2021-025A","EPOCH":"2025-10-06T04:47:26.240928","MEAN_MOTION":13.1346965,"ECCENTRICITY":0.0001768,"INCLINATION":87.9056,"RA_OF_ASC_NODE":10.6787,"ARG_OF_PERICENTER":99.9732,"MEAN_ANOMALY":260.1596,"EPHEMERIS_TYPE":0,"CLASSIFICATION_TYPE":"U","NORAD_CAT_ID":48042,"ELEMENT_SET_NO":999,"REV_AT_EPOCH":22025,"BSTAR":-0.0005422,"MEAN_MOTION_DOT":-1.85e-6,"MEAN_MOTION_DDOT":0},{"OBJECT_NAME":"ONEWEB-0152","OBJECT_ID":"2021-025B","EPOCH":"2025-10-06T05:06:55.931904","MEAN_MOTION":13.13468929,"ECCENTRICITY":0.0001677,"INCLINATION":87.9049,"RA_OF_ASC_NODE":10.6896,"ARG_OF_PERICENTER":102.0111,"MEAN_ANOMALY":258.1206,"EPHEMERIS_TYPE":0,"CLASSIFICATION_TYPE":"U","NORAD_CAT_ID":48043,"ELEMENT_SET_NO":999,"REV_AT_EPOCH":22021,"BSTAR":-0.00060428,"MEAN_MOTION_DOT":-2.08e-6,"MEAN_MOTION_DDOT":0},{"OBJECT_NAME":"ONEWEB-0153","OBJECT_ID":"2021-025C","EPOCH":"2025-10-06T04:35:14.947008","MEAN_MOTION":13.13468524,"ECCENTRICITY":0.0001854,"INCLINATION":87.9057,"RA_OF_ASC_NODE":10.6949,"ARG_OF_PERICENTER":100.6376,"MEAN_ANOMALY":259.4962,"EPHEMERIS_TYPE":0,"CLASSIFICATION_TYPE":"U","NORAD_CAT_ID":48044,"ELEMENT_SET_NO":999,"REV_AT_EPOCH":22020,"BSTAR":0.0001464,"MEAN_MOTION_DOT":6.6e-7,"MEAN_MOTION_DDOT":0},{"OBJECT_NAME":"ONEWEB-0154","OBJECT_ID":"2021-025D","EPOCH":"2025-10-06T04:30:22.775040","MEAN_MOTION":13.13469683,"ECCENTRICITY":0.0001815,"INCLINATION":87.9056,"RA_OF_ASC_NODE":10.6918,"ARG_OF_PERICENTER":103.6129,"MEAN_ANOMALY":256.5202,"EPHEMERIS_TYPE":0,"CLASSIFICATION_TYPE":"U","NORAD_CAT_ID":48045,"ELEMENT_SET_NO":999,"REV_AT_EPOCH":22016,"BSTAR":0.00039761,"MEAN_MOTION_DOT":1.58e-6,"MEAN_MOTION_DDOT":0},{"OBJECT_NAME":"ONEWEB-0116","OBJECT_ID":"2021-025E","EPOCH":"2025-10-06T03:36:44.978976","MEAN_MOTION":13.13469806,"ECCENTRICITY":0.0001666,"INCLINATION":87.9059,"RA_OF_ASC_NODE":10.6821,"ARG_OF_PERICENTER":100.5853,"MEAN_ANOMALY":259.5463,"EPHEMERIS_TYPE":0,"CLASSIFICATION_TYPE":"U","NORAD_CAT_ID":48046,"ELEMENT_SET_NO":999,"REV_AT_EPOCH":22030,"BSTAR":-2.7837e-6,"MEAN_MOTION_DOT":1.2e-7,"MEAN_MOTION_DDOT":0},{"OBJECT_NAME":"ONEWEB-0150","OBJECT_ID":"2021-025F","EPOCH":"2025-10-06T04:52:18.946848","MEAN_MOTION":13.13468871,"ECCENTRICITY":0.0001891,"INCLINATION":87.9059,"RA_OF_ASC_NODE":10.6666,"ARG_OF_PERICENTER":95.4691,"MEAN_ANOMALY":264.6653,"EPHEMERIS_TYPE":0,"CLASSIFICATION_TYPE":"U","NORAD_CAT_ID":48047,"ELEMENT_SET_NO":999,"REV_AT_EPOCH":22020,"BSTAR":-0.00076332,"MEAN_MOTION_DOT":-2.66e-6,"MEAN_MOTION_DDOT":0},{"OBJECT_NAME":"ONEWEB-0107","OBJECT_ID":"2021-025G","EPOCH":"2025-10-06T04:54:45.631584","MEAN_MOTION":13.13470388,"ECCENTRICITY":0.0002106,"INCLINATION":87.906,"RA_OF_ASC_NODE":10.6637,"ARG_OF_PERICENTER":103.7916,"MEAN_ANOMALY":256.3447,"EPHEMERIS_TYPE":0,"CLASSIFICATION_TYPE":"U","NORAD_CAT_ID":48048,"ELEMENT_SET_NO":999,"REV_AT_EPOCH":22018,"BSTAR":-0.00058246,"MEAN_MOTION_DOT":-2.0e-6,"MEAN_MOTION_DDOT":0},{"OBJECT_NAME":"ONEWEB-0101","OBJECT_ID":"2021-025H","EPOCH":"2025-10-06T04:01:08.824800","MEAN_MOTION":13.13468198,"ECCENTRICITY":0.0001868,"INCLINATION":87.9048,"RA_OF_ASC_NODE":10.7093,"ARG_OF_PERICENTER":105.2701,"MEAN_ANOMALY":254.8635,"EPHEMERIS_TYPE":0,"CLASSIFICATION_TYPE":"U","NORAD_CAT_ID":48049,"ELEMENT_SET_NO":999,"REV_AT_EPOCH":22015,"BSTAR":0.0012343,"MEAN_MOTION_DOT":4.64e-6,"MEAN_MOTION_DDOT":0},{"OBJECT_NAME":"ONEWEB-0113","OBJECT_ID":"2021-025J","EPOCH":"2025-10-06T05:02:30.568128","MEAN_MOTION":13.13979216,"ECCENTRICITY":0.0001665,"INCLINATION":87.9051,"RA_OF_ASC_NODE":10.6377,"ARG_OF_PERICENTER":93.9043,"MEAN_ANOMALY":266.2276,"EPHEMERIS_TYPE":0,"CLASSIFICATION_TYPE":"U","NORAD_CAT_ID":48050,"ELEMENT_SET_NO":999,"REV_AT_EPOCH":22025,"BSTAR":-0.00076056,"MEAN_MOTION_DOT":-2.67e-6,"MEAN_MOTION_DDOT":0},{"OBJECT_NAME":"ONEWEB-0112","OBJECT_ID":"2021-025K","EPOCH":"2025-10-06T05:02:04.460640","MEAN_MOTION":13.1346986,"ECCENTRICITY":0.0001844,"INCLINATION":87.9056,"RA_OF_ASC_NODE":10.6597,"ARG_OF_PERICENTER":98.8216,"MEAN_ANOMALY":261.3122,"EPHEMERIS_TYPE":0,"CLASSIFICATION_TYPE":"U","NORAD_CAT_ID":48051,"ELEMENT_SET_NO":999,"REV_AT_EPOCH":22025,"BSTAR":-0.00068946,"MEAN_MOTION_DOT":-2.39e-6,"MEAN_MOTION_DDOT":0},{"OBJECT_NAME":"ONEWEB-0156","OBJECT_ID":"2021-025L","EPOCH":"2025-10-05T12:46:59.827296","MEAN_MOTION":13.13469974,"ECCENTRICITY":0.0001953,"INCLINATION":87.9056,"RA_OF_ASC_NODE":10.8057,"ARG_OF_PERICENTER":99.7661,"MEAN_ANOMALY":260.3689,"EPHEMERIS_TYPE":0,"CLASSIFICATION_TYPE":"U","NORAD_CAT_ID":48052,"ELEMENT_SET_NO":999,"REV_AT_EPOCH":22014,"BSTAR":-0.00034739,"MEAN_MOTION_DOT":-1.14e-6,"MEAN_MOTION_DDOT":0}]
