ONEWEB-0142             
1 47288U 20100AG  25279.05754007 -.00000362  00000+0 -10410-2 0  9995
2 47288  87.8951  41.1506 0002074  97.1583 262.9781 13.12443143231335
ONEWEB-0143             
1 47289U 20100AH  25279.06712106 -.00000370  00000+0 -10650-2 0  9996
2 47289  87.8949  41.1451 0001662  99.3648 260.7668 13.12442264231311
ONEWEB-0144             
1 47290U 20100AJ  25279.03955880  .00000161  00000+0  41215-3 0  9991
2 47290  87.8940  41.1238 0002007 103.3929 256.7424 13.12440961231237
ONEWEB-0145             
1 47291U 20100AK  25279.08659426  .00000191  00000+0  49611-3 0  9995
2 47291  87.8950  41.1477 0001774 100.9215 259.2114 13.12442378231435
ONEWEB-0146             
1 47292U 20100AL  25279.08335449 -.00000046  00000+0 -16428-3 0  9993
2 47292  87.8947  41.1348 0001409  94.9138 265.2151 13.12442437231344
ONEWEB-0147             
1 47293U 20100AM  25279.04928338 -.00000200  00000+0 -59139-3 0  9993
2 47293  87.8949  41.1199 0001700 109.7197 250.4114 13.12441315231232
ONEWEB-0115             
1 48042U 21025A   25279.19960927 -.00000185  00000+0 -54220-3 0  9997
2 48042  87.9056  10.6787 0001768  99.9732 260.1596 13.13469650220253
ONEWEB-0152             
1 48043U 21025B   25279.21314736 -.00000208  00000+0 -60428-3 0  9995
2 48043  87.9049  10.6896 0001677 102.0111 258.1206 13.13468929220212
ONEWEB-0153             
1 48044U 21025C   25279.19114522  .00000066  00000+0  14640-3 0  9999
2 48044  87.9057  10.6949 0001854 100.6376 259.4962 13.13468524220208
ONEWEB-0154             
1 48045U 21025D   25279.18776360  .00000158  00000+0  39761-3 0  9996
2 48045  87.9056  10.6918 0001815 103.6129 256.5202 13.13469683220167
ONEWEB-0116             
1 48046U 21025E   25279.15052059  .00000012  00000+0 -27837-5 0  9999
2 48046  87.9059  10.6821 0001666 100.5853 259.5463 13.13469806220303
ONEWEB-0150             
1 48047U 21025F   25279.20299707 -.00000266  00000+0 -76332-3 0  9993
2 48047  87.9059  10.6666 0001891  95.4691 264.6653 13.13468871220201
ONEWEB-0107             
1 48048U 21025G   25279.20469481 -.00000200  00000+0 -58246-3 0  9994
2 48048  87.9060  10.6637 0002106 103.7916 256.3447 13.13470388220187
ONEWEB-0101             
1 48049U 21025H   25279.16746325  .00000464  00000+0  12343-2 0  9992
2 48049  87.9048  10.7093 0001868 105.2701 254.8635 13.13468198220159
ONEWEB-0113             
1 48050U 21025J   25279.21007602 -.00000267  00000+0 -76056-3 0  9993
2 48050  87.9051  10.6377 0001665  93.9043 266.2276 13.13979216220253
ONEWEB-0112             
1 48051U 21025K   25279.20977385 -.00000239  00000+0 -68946-3 0  9995
2 48051  87.9056  10.6597 0001844  98.8216 261.3122 13.13469860220253
ONEWEB-0156             
1 48052U 21025L   25278.53263689 -.00000114  00000+0 -34739-3 0  9991
2 48052  87.9056  10.8057 0001953  99.7661 260.3689 13.13469974220143
